NORAD_CAT_ID,OBJECT_NAME,OBJECT_TYPE,EPOCH,MEAN_MOTION,ECCENTRICITY,INCLINATION,RA_OF_ASC_NODE,ARG_OF_PERICENTER,MEAN_ANOMALY,BSTAR,MEAN_MOTION_DOT,MEAN_MOTION_DDOT,TLE_LINE0,TLE_LINE1,TLE_LINE2,SEMIMAJOR_AXIS,PERIOD,APOGEE,PERIGEE,DECAYED
53846.0,STARLINK-4746,PAYLOAD,2024-03-29 09:26:30,15.08846115,0.0001918,53.2176,242.5783,89.3266,270.7946,-4.7418e-05,-1.043e-05,0.0,0 STARLINK-4746,1 53846U 22114AE  24089.39340500 -.00001043  00000-0 -47418-4 0  9991,2 53846  53.2176 242.5783 0001918  89.3266 270.7946 15.08846115 85744,6917.862,95.437,541.054,538.4,0.0
53846.0,STARLINK-4746,PAYLOAD,2024-03-29 20:34:11,15.08846938,0.000178,53.2176,240.4986,104.8226,255.2963,-2.929e-05,-7.54e-06,0.0,0 STARLINK-4746,1 53846U 22114AE  24089.85708074 -.00000754  00000-0 -29290-4 0  9992,2 53846  53.2176 240.4986 0001780 104.8226 255.2963 15.08846938 85810,6917.859,95.437,540.956,538.493,0.0
53846.0,STARLINK-4746,PAYLOAD,2024-03-30 02:55:44,15.0884825,0.0001273,53.2168,239.3061,85.608,274.5057,-3.3294e-05,-8.18e-06,0.0,0 STARLINK-4746,1 53846U 22114AE  24090.12203861 -.00000818  00000-0 -33294-4 0  9998,2 53846  53.2168 239.3061 0001273  85.6080 274.5057 15.08848250 85315,6917.855,95.437,540.601,538.84,0.0
53846.0,STARLINK-4746,PAYLOAD,2024-03-30 14:03:26,15.08837923,0.0001446,53.216,237.2253,80.9741,279.1415,1.6074e-05,-3.2e-07,0.0,0 STARLINK-4746,1 53846U 22114AE  24090.58572328 -.00000032  00000-0  16074-4 0  9999,2 53846  53.2160 237.2253 0001446  80.9741 279.1415 15.08837923 85922,6917.887,95.438,540.752,538.751,0.0
53846.0,STARLINK-4746,PAYLOAD,2024-03-31 13:54:13,15.08842777,0.0002179,53.2161,232.7664,91.4907,268.6335,2.3315e-05,8.3e-07,0.0,0 STARLINK-4746,1 53846U 22114AE  24091.57932032  .00000083  00000-0  23315-4 0  9992,2 53846  53.2161 232.7664 0002179  91.4907 268.6335 15.08842777 86078,6917.872,95.437,541.244,538.229,0.0
53846.0,STARLINK-4746,PAYLOAD,2024-03-31 17:04:58,15.08848351,0.0001506,53.2174,232.1708,84.7859,275.3305,0.00010856,1.441e-05,0.0,0 STARLINK-4746,1 53846U 22114AE  24091.71179382  .00001441  00000-0  10856-3 0  9993,2 53846  53.2174 232.1708 0001506  84.7859 275.3305 15.08848351 85557,6917.855,95.437,540.762,538.678,0.0
53846.0,STARLINK-4746,PAYLOAD,2024-04-01 02:37:18,15.08839645,0.0001579,53.2188,230.3862,84.6926,275.4246,7.0147e-05,8.29e-06,0.0,0 STARLINK-4746,1 53846U 22114AE  24092.10924034  .00000829  00000-0  70147-4 0  9998,2 53846  53.2188 230.3862 0001579  84.6926 275.4246 15.08839645 85615,6917.881,95.438,540.839,538.654,0.0
53846.0,STARLINK-4746,PAYLOAD,2024-04-01 15:20:23,15.08833327,0.0001366,53.2159,228.009,91.8709,268.2439,3.3474e-05,2.45e-06,0.0,0 STARLINK-4746,1 53846U 22114AE  24092.63916595  .00000245  00000-0  33474-4 0  9993,2 53846  53.2159 228.0090 0001366  91.8709 268.2439 15.08833327 86237,6917.901,95.438,540.711,538.821,0.0
53846.0,STARLINK-4746,PAYLOAD,2024-04-02 12:00:24,15.08837271,0.0001288,53.2176,224.1425,89.4648,270.6491,9.9993e-05,1.304e-05,0.0,0 STARLINK-4746,1 53846U 22114AE  24093.50028197  .00001304  00000-0  99993-4 0  9997,2 53846  53.2176 224.1425 0001288  89.4648 270.6491 15.08837271 85824,6917.889,95.438,540.645,538.863,0.0
53846.0,STARLINK-4746,PAYLOAD,2024-04-02 15:11:10,15.08838492,0.0001209,53.2183,223.548,90.2405,269.8726,0.00012283,1.667e-05,0.0,0 STARLINK-4746,1 53846U 22114AE  24093.63276056  .00001667  00000-0  12283-3 0  9998,2 53846  53.2183 223.5480 0001209  90.2405 269.8726 15.08838492 86389,6917.885,95.438,540.586,538.914,0.0
53846.0,STARLINK-4746,PAYLOAD,2024-04-03 15:01:57,15.08836573,0.0001272,53.2172,219.0858,95.7232,264.3906,7.9131e-05,9.72e-06,0.0,0 STARLINK-4746,1 53846U 22114AE  24094.62636270  .00000972  00000-0  79131-4 0  9990,2 53846  53.2172 219.0858 0001272  95.7232 264.3906 15.08836573 86539,6917.891,95.438,540.636,538.876,0.0
53846.0,STARLINK-4746,PAYLOAD,2024-04-03 18:12:43,15.08841768,0.0001338,53.2175,218.4911,93.4199,266.6946,7.9931e-06,-1.61e-06,0.0,0 STARLINK-4746,1 53846U 22114AE  24094.75884216 -.00000161  00000-0  79931-5 0  9999,2 53846  53.2175 218.4911 0001338  93.4199 266.6946 15.08841768 86019,6917.875,95.437,540.666,538.814,0.0
53846.0,STARLINK-4746,PAYLOAD,2024-04-04 14:52:44,15.08840883,0.000138,53.2174,214.6256,91.7727,268.3423,3.4729e-05,2.65e-06,0.0,0 STARLINK-4746,1 53846U 22114AE  24095.61996319  .00000265  00000-0  34729-4 0  9992,2 53846  53.2174 214.6256 0001380  91.7727 268.3423 15.08840883 86682,6917.878,95.437,540.697,538.788,0.0
53846.0,STARLINK-4746,PAYLOAD,2024-04-05 13:08:08,15.08845142,0.0001312,53.2174,210.4637,90.1646,269.9497,8.7837e-05,1.11e-05,0.0,0 STARLINK-4746,1 53846U 22114AE  24096.54731809  .00001110  00000-0  87837-4 0  9994,2 53846  53.2174 210.4637 0001312  90.1646 269.9497 15.08845142 86284,6917.865,95.437,540.637,538.822,0.0
53846.0,STARLINK-4746,PAYLOAD,2024-04-05 14:43:31,15.08850575,0.0001271,53.2172,210.1664,88.5828,271.531,0.00010876,1.444e-05,0.0,0 STARLINK-4746,1 53846U 22114AE  24096.61355386  .00001444  00000-0  10876-3 0  9992,2 53846  53.2172 210.1664 0001271  88.5828 271.5310 15.08850575 86836,6917.848,95.437,540.592,538.834,0.0
53846.0,STARLINK-4746,PAYLOAD,2024-04-06 00:15:50,15.08844604,0.0001218,53.2169,208.382,86.1633,273.9498,9.5868e-05,1.238e-05,0.0,0 STARLINK-4746,1 53846U 22114AE  24097.01099621  .00001238  00000-0  95868-4 0  9990,2 53846  53.2169 208.3820 0001218  86.1633 273.9498 15.08844604 86899,6917.866,95.437,540.574,538.889,0.0
53846.0,STARLINK-4746,PAYLOAD,2024-04-06 16:09:42,15.08831807,0.0001468,53.2188,205.4122,103.3651,256.7505,-4.5307e-05,-1.009e-05,0.0,0 STARLINK-4746,1 53846U 22114AE  24097.67341040 -.00001009  00000-0 -45307-4 0  9998,2 53846  53.2188 205.4122 0001468 103.3651 256.7505 15.08831807 86453,6917.905,95.438,540.786,538.755,0.0
53846.0,STARLINK-4746,PAYLOAD,2024-04-07 06:28:11,15.08833208,0.00015,53.2205,202.7364,100.2915,259.8247,-0.00011045,-2.045e-05,0.0,0 STARLINK-4746,1 53846U 22114AE  24098.26957503 -.00002045  00000-0 -11045-3 0  9993,2 53846  53.2205 202.7364 0001500 100.2915 259.8247 15.08833208 87081,6917.901,95.438,540.804,538.728,0.0
53846.0,STARLINK-4746,PAYLOAD,2024-04-07 23:57:25,15.08838786,0.0001621,53.2178,199.4627,92.4338,267.684,-9.1455e-05,-1.743e-05,0.0,0 STARLINK-4746,1 53846U 22114AE  24098.99821353 -.00001743  00000-0 -91455-4 0  9994,2 53846  53.2178 199.4627 0001621  92.4338 267.6840 15.08838786 86653,6917.884,95.438,540.87,538.628,0.0
53846.0,STARLINK-4746,PAYLOAD,2024-04-08 12:40:29,15.08847473,0.0001324,53.2172,197.0837,90.8257,269.2887,0.00017951,2.571e-05,0.0,0 STARLINK-4746,1 53846U 22114AE  24099.52811908  .00002571  00000-0  17951-3 0  9995,2 53846  53.2172 197.0837 0001324  90.8257 269.2887 15.08847473 86737,6917.858,95.437,540.638,538.807,0.0
53846.0,STARLINK-4746,PAYLOAD,2024-04-08 23:48:11,15.08841105,0.0001469,53.2172,195.0021,80.9458,279.17,0.00017235,2.456e-05,0.0,0 STARLINK-4746,1 53846U 22114AE  24099.99180339  .00002456  00000-0  17235-3 0  9990,2 53846  53.2172 195.0021 0001469  80.9458 279.1700 15.08841105 87341,6917.877,95.437,540.758,538.726,0.0
53846.0,STARLINK-4746,PAYLOAD,2024-04-09 12:31:16,15.08840904,0.0001599,53.217,192.6228,82.8685,277.2489,0.00016836,2.393e-05,0.0,0 STARLINK-4746,1 53846U 22114AE  24100.52172447  .00002393  00000-0  16836-3 0  9999,2 53846  53.2170 192.6228 0001599  82.8685 277.2489 15.08840904 87426,6917.878,95.437,540.849,538.636,0.0
53846.0,STARLINK-4746,PAYLOAD,2024-04-10 12:22:03,15.08847807,0.0001629,53.2171,188.1608,91.0362,269.0817,-4.1256e-06,-3.54e-06,0.0,0 STARLINK-4746,1 53846U 22114AE  24101.51532189 -.00000354  00000-0 -41256-5 0  9995,2 53846  53.2171 188.1608 0001629  91.0362 269.0817 15.08847807 87037,6917.857,95.437,540.848,538.595,0.0
53846.0,STARLINK-4746,PAYLOAD,2024-04-11 05:51:18,15.0883695,0.000159,53.2175,184.8905,87.0181,273.0993,-4.976e-05,-1.08e-05,0.0,0 STARLINK-4746,1 53846U 22114AE  24102.24396901 -.00001080  00000-0 -49760-4 0  9990,2 53846  53.2175 184.8905 0001590  87.0181 273.0993 15.08836950 87144,6917.89,95.438,540.855,538.655,0.0
53846.0,STARLINK-4746,PAYLOAD,2024-04-11 12:12:51,15.08855895,0.0001317,53.2172,183.701,90.1628,269.9515,-0.0002597,-4.42e-05,0.0,0 STARLINK-4746,1 53846U 22114AE  24102.50892630 -.00004420  00000-0 -25970-3 0  9996,2 53846  53.2172 183.7010 0001317  90.1628 269.9515 15.08855895 87721,6917.832,95.437,540.608,538.786,0.0
53846.0,STARLINK-4746,PAYLOAD,2024-04-11 21:45:09,15.08858573,0.0001426,53.2173,181.917,93.0689,267.0466,-0.00035029,-5.861e-05,0.0,0 STARLINK-4746,1 53846U 22114AE  24102.90636402 -.00005861  00000-0 -35029-3 0  9999,2 53846  53.2173 181.9170 0001426  93.0689 267.0466 15.08858573 87785,6917.824,95.436,540.675,538.702,0.0
53846.0,STARLINK-4746,PAYLOAD,2024-04-12 05:42:06,15.08832456,0.000139,53.2171,180.4302,91.9087,268.2064,1.1649e-05,-1.03e-06,0.0,0 STARLINK-4746,1 53846U 22114AE  24103.23757179 -.00000103  00000-0  11649-4 0  9997,2 53846  53.2171 180.4302 0001390  91.9087 268.2064 15.08832456 87298,6917.903,95.438,540.73,538.807,0.0
53846.0,STARLINK-4746,PAYLOAD,2024-04-12 10:28:15,15.08834445,0.0001387,53.2174,179.5382,91.7697,268.3454,2.618e-05,1.29e-06,0.0,0 STARLINK-4746,1 53846U 22114AE  24103.43629076  .00000129  00000-0  26180-4 0  9996,2 53846  53.2174 179.5382 0001387  91.7697 268.3454 15.08834445 87866,6917.897,95.438,540.722,538.803,0.0
53846.0,STARLINK-4746,PAYLOAD,2024-04-13 10:19:03,15.08830497,0.0001366,53.2172,175.0777,90.6479,269.4669,2.6502e-05,1.34e-06,0.0,0 STARLINK-4746,1 53846U 22114AE  24104.42989869  .00000134  00000-0  26502-4 0  9999,2 53846  53.2172 175.0777 0001366  90.6479 269.4669 15.08830497 87476,6917.909,95.438,540.719,538.829,0.0
53846.0,STARLINK-4746,PAYLOAD,2024-04-14 03:48:17,15.08837892,0.0001366,53.2176,171.8066,94.2322,265.8826,7.827e-05,9.58e-06,0.0,0 STARLINK-4746,1 53846U 22114AE  24105.15853517  .00000958  00000-0  78270-4 0  9993,2 53846  53.2176 171.8066 0001366  94.2322 265.8826 15.08837892 87585,6917.887,95.438,540.697,538.807,0.0
